STARLINK-2197
1 27774C 21017BE  21325.15449438 -.00019619  00000-0 -13145-2 0  3258
2 27774  53.0558  67.5286 0001324  74.0679 153.0296 15.06418820    16
